446P/McNaught,e,16.6317,336.3298,344.6196,4.559401,0.1012377,0.64679903,117.4755,08/01.0/2025,2000,g 16.5,4.0
# From MPEC 2022-YB4
447P/Sheppard-Tholen,e,7.4413,302.6374,97.4839,5.625190,0.0738751,0.17720388,79.8612,08/01.0/2025,2000,g 12.0,4.0
# From MPEC 2024-PC5
448P/PANSTARRS,e,12.1446,161.7534,218.8028,3.636499,0.1421278,0.41811252,150.6419,08/01.0/2025,2000,g 16.0,4.0
# From MPEC 2024-DC6
449P/Leonard,e,15.4699,242.5216,176.7693,3.599772,0.1443084,0.47976303,246.6970,08/01.0/2025,2000,g 16.0,4.0
# From MPC184420
450P/LONEOS,e,10.7159,124.1832,23.9891,7.926956,0.0441616,0.31426089,335.5590,08/01.0/2025,2000,g  6.5,4.0
# From MPEC 2023-HD1
451P/Christensen,e,26.4855,300.8665,186.7976,6.350443,0.0615883,0.55925130,60.1717,08/01.0/2025,2000,g 15.5,4.0
# From MPEC 2024-NE4
452P/Sheppard-Jewitt,e,6.4220,123.6644,37.1004,7.311491,0.0498534,0.42859999,41.2773,08/01.0/2025,2000,g  9.0,4.0
# From MPEC 2023-RF3
453P/WISE-Lemmon,e,27.0587,42.8913,70.9027,5.467649,0.0770909,0.58315817,67.9641,08/01.0/2025,2000,g 14.0,4.0
# From MPEC 2023-CD7
454P/PANSTARRS,e,19.8090,54.5861,20.2011,4.211605,0.1140335,0.36140714,125.5876,08/01.0/2025,2000,g 14.0,4.0
# From MPEC 2022-Y14
455P/PANSTARRS,e,14.1346,146.1794,237.5366,3.153451,0.1760050,0.30440749,156.3114,08/01.0/2025,2000,g 17.0,4.0
# From MPC182892
456P/PANSTARRS,e,16.9650,243.1420,232.9919,3.169274,0.1746885,0.11581515,18.8916,08/01.0/2025,2000,g 13.5,4.0
# From MPEC 2025-A40
457P/Lemmon-PANSTARRS,e,5.2258,175.9635,104.3130,2.645115,0.2291064,0.11836875,79.2599,08/01.0/2025,2000,g 15.5,4.0
# From MPEC 2023-HD1
458P/Jahn,e,13.6220,1.5585,104.9413,3.859310,0.1299989,0.31726222,130.6718,08/01.0/2025,2000,g 17.3,4.0
# From MPEC 2024-N80
459P/Catalina,e,7.1737,256.9876,205.2272,3.240433,0.1689660,0.57786784,150.5979,08/01.0/2025,2000,g 15.5,4.0
# From MPEC 2023-G14
460P/PANSTARRS,e,18.9000,180.5169,351.9335,3.027320,0.1871184,0.66423485,282.0404,08/01.0/2025,2000,g 21.0,4.0
# From MPEC 2024-GJ3
461P/WISE,e,18.3983,194.3764,174.8305,3.144434,0.1767626,0.56954452,246.8615,08/01.0/2025,2000,g 18.5,4.0
# From MPEC 2024-BE0
462P/LONEOS-PANSTARRS,e,7.0485,322.6561,4.2078,4.861471,0.0919502,0.57853345,100.7704,08/01.0/2025,2000,g 17.0,4.0
# From MPEC 2024-GJ3
463P/NEOWISE,e,29.2963,283.2184,216.3405,2.974100,0.1921634,0.82591301,164.3232,08/01.0/2025,2000,g 18.0,4.0
# From MPEC 2024-Q20
464P/PANSTARRS,e,21.6736,309.5785,267.5174,4.683765,0.0972325,0.28059723,86.1191,08/01.0/2025,2000,g 10.5,4.0
# From MPEC 2024-NE4
465P/Hill,e,25.8617,217.9507,140.9801,6.007296,0.0669400,0.61311906,54.5634,08/01.0/2025,2000,g 12.5,4.0
# From MPEC 2024-JU4
466P/PANSTARRS,e,13.1406,117.5737,198.0893,4.029715,0.1218408,0.48120771,98.9015,08/01.0/2025,2000,g 14.0,4.0
# From MPEC 2025-A40
467P/LINEAR-Grauer,e,2.4793,43.2626,267.4383,5.825859,0.0700913,0.05443899,68.6180,08/01.0/2025,2000,g  9.0,4.0
# From MPEC 2024-O39
468P/SidingSpring,e,50.4525,356.1265,322.5749,7.116948,0.0519115,0.44492458,32.1295,08/01.0/2025,2000,g 11.5,4.0
# From MPEC 2025-A40
469P/PANSTARRS,e,20.1721,178.9672,43.4939,4.342674,0.1089101,0.30803007,345.9067,08/01.0/2025,2000,g 13.5,4.0
# From MPC182892
470P/PANSTARRS,e,8.8440,246.1668,151.6789,4.463291,0.1045253,0.38934742,62.0165,08/01.0/2025,2000,g 15.5,4.0
# From MPC182892
471P/LINEAR-Lemmon,e,4.7970,283.3125,94.7750,5.692505,0.0725686,0.62767684,42.8300,08/01.0/2025,2000,g 12.0,4.0
# From MPC185666
472P/NEAT-LINEAR,e,10.8245,205.8365,218.8308,7.775714,0.0454563,0.56439599,17.4086,08/01.0/2025,2000,g 10.5,4.0
# From MPEC 2024-MB8
473P/NEAT,e,56.8948,22.1904,42.9389,7.972874,0.0437806,0.82359615,22.8432,08/01.0/2025,2000,g 13.5,4.0
# From MPEC 2024-B74
474P/Hogan,e,1.0969,26.7506,11.2631,3.130557,0.1779392,0.18803315,132.9837,08/01.0/2025,2000,g 15.5,4.0
# From MPC185666
475P/Spacewatch-LINEAR,e,14.5237,147.3586,40.4107,7.318190,0.0497850,0.44284330,21.1752,08/01.0/2025,2000,g 11.0,4.0
# From MPC184421
476P/PANSTARRS,e,19.0053,57.0491,46.7339,4.774762,0.0944662,0.34584283,27.2562,08/01.0/2025,2000,g 12.5,4.0
# From MPEC 2024-GJ3
477P/PANSTARRS,e,8.9138,59.1441,305.8721,3.001886,0.1895015,0.41754825,110.5714,08/01.0/2025,2000,g 14.5,4.0
# From MPEC 2024-L77
478P/ATLAS,e,12.5247,127.2621,13.2472,3.648030,0.1414544,0.34376425,64.4774,08/01.0/2025,2000,g 13.5,4.0
# From MPEC 2024-PC5
479P/Elenin,e,15.3998,295.8327,263.5031,5.622813,0.0739220,0.77891580,33.4670,08/01.0/2025,2000,g 15.0,4.0
# From MPC182893
480P/PANSTARRS,e,13.7166,229.9820,214.4248,4.610974,0.0995440,0.24631136,82.6420,08/01.0/2025,2000,g 12.0,4.0
# From MPEC 2025-A40
481P/Lemmon-PANSTARRS,e,6.0827,93.5501,356.8092,4.681846,0.0972923,0.34346278,73.3272,08/01.0/2025,2000,g 13.5,4.0
# From MPEC 2024-JU4
482P/PANSTARRS,e,24.4875,126.0761,339.7288,3.756938,0.1353484,0.49236956,107.0355,08/01.0/2025,2000,g 13.5,4.0
# From MPEC 2024-R10
483P-A/PANSTARRS,e,14.1820,199.2038,49.2548,3.195278,0.1725604,0.22212515,216.4034,08/01.0/2025,2000,g 13.5,4.0
# From MPC185666
483P-B/PANSTARRS,e,14.1828,199.2031,49.2447,3.195200,0.1725667,0.22206681,216.4394,08/01.0/2025,2000,g 17.0,4.0
# From MPEC 2024-DD5
484P/Spacewatch,e,14.4742,265.3791,240.8031,3.756809,0.1353553,0.43297610,231.0612,08/01.0/2025,2000,g 16.0,4.0
# From MPEC 2024-JU4
485P/Sheppard-Tholen,e,10.0161,261.6442,196.1072,6.851258,0.0549602,0.41718432,38.8428,08/01.0/2025,2000,g 13.0,4.0
# From MPEC 2025-OF9
486P/Leonard,e,2.2096,219.0231,93.9457,3.627638,0.1426488,0.36350531,16.9969,08/01.0/2025,2000,g 14.5,4.0
# From MPC185666
487P/SidingSpring,e,39.3661,49.2020,0.8412,5.161707,0.0840454,0.64842856,23.9039,08/01.0/2025,2000,g 13.5,4.0
# From MPEC 2024-UA9
488P/NEAT-PANSTARRS,e,11.3807,323.8910,1.8081,3.742912,0.1361099,0.55125500,59.6668,08/01.0/2025,2000,g 16.5,4.0
# From MPEC 2024-Q14
489P/Denning,e,4.0261,20.6075,109.4223,4.425052,0.1058831,0.64717711,346.7304,08/01.0/2025,2000,g 15.5,4.0
# From MPEC 2024-YC7
490P/ATLAS,e,12.2665,307.5975,332.5536,3.030164,0.1868551,0.64713866,57.3328,08/01.0/2025,2000,g 21.0,4.0
# From MPEC 2025-OF9
491P/Spacewatch-PANSTARRS,e,9.3665,311.6838,298.8736,5.013189,0.0878078,0.25868442,28.8926,08/01.0/2025,2000,g  9.5,4.0
# From MPC185666
492P/LINEAR,e,11.4012,11.3047,40.9821,5.759329,0.0713093,0.69059661,26.8524,08/01.0/2025,2000,g 15.0,4.0
# From MPEC 2025-OF9
493P/LONEOS,e,24.1108,1.1025,83.2055,7.169204,0.0513449,0.46674046,351.4722,08/01.0/2025,2000,g 12.0,2.0
# From MPEC 2024-RQ6
494P/PANSTARRS,e,7.7899,245.0433,48.8819,3.794477,0.1333448,0.35680280,56.9395,08/01.0/2025,2000,g 16.0,4.0
# From MPEC 2025-A40
495P/Christensen,e,26.3552,291.6163,141.3335,4.757154,0.0949912,0.27269183,352.1778,08/01.0/2025,2000,g 11.5,4.0
# From MPC185666
496P/Hill,e,14.8144,63.5860,42.2452,6.098698,0.0654408,0.73419969,9.4055,08/01.0/2025,2000,g 14.0,4.0
# From MPC184421
497P/Spacewatch-PANSTARRS,e,10.4367,40.3683,32.3983,5.613979,0.0740965,0.63039262,12.3524,08/01.0/2025,2000,g 17.5,4.0
# From MPC184421
498P/LINEAR,e,14.4827,279.2304,179.0807,4.592685,0.1001392,0.57228815,22.5403,08/01.0/2025,2000,g 14.7,4.0
# From MPC185667
499P/Catalina,e,24.5823,139.3079,2.5589,3.017684,0.1880154,0.69146531,28.1283,08/01.0/2025,2000,g 18.5,4.0
# From MPC185667
500P/PANSTARRS,e,2.3015,111.5277,46.6910,3.415723,0.1561277,0.37587414,19.0554,08/01.0/2025,2000,g 16.0,4.0
# From MPC182882
501P/Rankin,e,10.0470,139.7806,53.6916,2.228010,0.2963660,0.69846599,140.3873,08/01.0/2025,2000,g 21.5,4.0
# From MPEC 2025-OF9
502P/NEAT,e,11.3996,264.4847,37.7393,7.997367,0.0435796,0.47113848,359.8226,08/01.0/2025,2000,g  8.5,4.0
# From MPC185667
503P/PANSTARRS,e,10.5748,268.5820,17.9501,3.657975,0.1408779,0.48131324,346.3963,08/01.0/2025,2000,g 15.0,4.0
# From MPEC 2025-OF9
504P/,e,8.8068,221.1201,308.5254,3.744262,0.1360363,0.40600487,15.5038,08/01.0/2025,2000,g 14.3,4.0
# From MPC184407
505P/,e,11.3882,111.9430,143.9665,4.112335,0.1181875,0.31060013,339.9409,08/01.0/2025,2000,g 14.9,4.0
# From MPEC 2025-OF9
506P/,e,13.6517,325.6623,354.4631,5.582513,0.0747239,0.48278164,52.7044,08/01.0/2025,2000,g 12.7,4.0
# From MPC184407
507P/Lemmon,e,17.1035,233.2057,107.7838,6.220288,0.0635314,0.56882502,61.8506,08/01.0/2025,2000,g 12.6,4.0
# From MPC107687
1I/`Oumuamua,h,09/09.4886/2017,122.6778,24.5997,241.6845,1.199252,0.255240,2000,23.0,2.0
# From MPEC 2023-L37
2I/Borisov,h,12/08.5548/2019,44.0527,308.1480,209.1251,3.356633,2.006548,2000,11.0,4.0
# From MPEC 2025-N89
3I/ATLAS,h,10/29.4887/2025,175.1124,322.1481,128.0018,6.138706,1.356423,2000,11.7,4.0
